NORAD_CAT_ID,OBJECT_NAME,OBJECT_TYPE,EPOCH,MEAN_MOTION,ECCENTRICITY,INCLINATION,RA_OF_ASC_NODE,ARG_OF_PERICENTER,MEAN_ANOMALY,BSTAR,MEAN_MOTION_DOT,MEAN_MOTION_DDOT,TLE_LINE0,TLE_LINE1,TLE_LINE2,SEMIMAJOR_AXIS,PERIOD,APOGEE,PERIGEE,DECAYED
52535.0,STARLINK-3958,PAYLOAD,2024-06-02 09:35:00,15.0883532,0.0001403,53.2166,145.9411,92.8339,267.2813,-2.0442e-05,-6.13e-06,0.0,0 STARLINK-3958,1 52535U 22051C   24154.39931134 -.00000613  00000-0 -20442-4 0  9997,2 52535  53.2166 145.9411 0001403  92.8339 267.2813 15.08835320114091,6917.895,95.438,540.73,538.789,0.0
52535.0,STARLINK-3958,PAYLOAD,2024-06-03 06:15:01,15.08837027,0.0001332,53.2165,142.0756,91.7785,268.336,5.9703e-05,6.62e-06,0.0,0 STARLINK-3958,1 52535U 22051C   24155.26043129  .00000662  00000-0  59703-4 0  9996,2 52535  53.2165 142.0756 0001332  91.7785 268.3360 15.08837027114156,6917.889,95.438,540.676,538.833,0.0
52535.0,STARLINK-3958,PAYLOAD,2024-06-03 15:47:20,15.08837652,0.0001304,53.2165,140.291,89.4138,270.7003,7.8595e-05,9.63e-06,0.0,0 STARLINK-3958,1 52535U 22051C   24155.65787157  .00000963  00000-0  78595-4 0  9999,2 52535  53.2165 140.2910 0001304  89.4138 270.7003 15.08837652114282,6917.888,95.438,540.655,538.85,0.0
52535.0,STARLINK-3958,PAYLOAD,2024-06-04 09:16:34,15.08842469,0.0001336,53.2165,137.021,93.3119,266.8026,0.00013115,1.8e-05,0.0,0 STARLINK-3958,1 52535U 22051C   24156.38650889  .00001800  00000-0  13115-3 0  9998,2 52535  53.2165 137.0210 0001336  93.3119 266.8026 15.08842469114325,6917.873,95.437,540.662,538.814,0.0
52535.0,STARLINK-3958,PAYLOAD,2024-06-04 15:38:06,15.08841677,0.0001301,53.2165,135.831,89.4892,270.6249,0.00012669,1.729e-05,0.0,0 STARLINK-3958,1 52535U 22051C   24156.65146987  .00001729  00000-0  12669-3 0  9990,2 52535  53.2165 135.8310 0001301  89.4892 270.6249 15.08841677114362,6917.875,95.437,540.64,538.84,0.0
52535.0,STARLINK-3958,PAYLOAD,2024-06-05 04:21:12,15.08839532,0.0001392,53.217,133.4526,86.3617,273.7534,6.1846e-05,6.96e-06,0.0,0 STARLINK-3958,1 52535U 22051C   24157.18139342  .00000696  00000-0  61846-4 0  9990,2 52535  53.2170 133.4526 0001392  86.3617 273.7534 15.08839532114517,6917.882,95.438,540.71,538.784,0.0
52535.0,STARLINK-3958,PAYLOAD,2024-06-05 05:56:35,15.08840589,0.0001395,53.2171,133.1553,85.824,274.2911,6.8759e-05,8.07e-06,0.0,0 STARLINK-3958,1 52535U 22051C   24157.24763256  .00000807  00000-0  68759-4 0  9998,2 52535  53.2171 133.1553 0001395  85.8240 274.2911 15.08840589114456,6917.879,95.438,540.709,538.779,0.0
52535.0,STARLINK-3958,PAYLOAD,2024-06-05 15:28:54,15.08837941,0.0001405,53.2169,131.3709,90.3165,269.7988,2.5564e-05,1.19e-06,0.0,0 STARLINK-3958,1 52535U 22051C   24157.64507541  .00000119  00000-0  25564-4 0  9998,2 52535  53.2169 131.3709 0001405  90.3165 269.7988 15.08837941114513,6917.887,95.438,540.724,538.78,0.0
52535.0,STARLINK-3958,PAYLOAD,2024-06-06 04:11:59,15.08840824,0.0001207,53.215,128.9908,89.3292,270.7838,-1.3585e-06,-3.09e-06,0.0,0 STARLINK-3958,1 52535U 22051C   24158.17499423 -.00000309  00000-0 -13585-5 0  9990,2 52535  53.2150 128.9908 0001207  89.3292 270.7838 15.08840824114593,6917.878,95.438,540.578,538.908,0.0
52535.0,STARLINK-3958,PAYLOAD,2024-06-06 21:41:13,15.08841516,0.0001255,53.215,125.7198,90.0419,270.0716,2.408e-05,9.5e-07,0.0,0 STARLINK-3958,1 52535U 22051C   24158.90363302  .00000095  00000-0  24080-4 0  9998,2 52535  53.2150 125.7198 0001255  90.0419 270.0716 15.08841516114779,6917.876,95.437,540.609,538.873,0.0
52535.0,STARLINK-3958,PAYLOAD,2024-06-07 15:10:28,15.0883985,0.0001121,53.2141,122.4483,95.4489,264.6631,2.7897e-05,1.56e-06,0.0,0 STARLINK-3958,1 52535U 22051C   24159.63227374  .00000156  00000-0  27897-4 0  9994,2 52535  53.2141 122.4483 0001121  95.4489 264.6631 15.08839850114816,6917.881,95.438,540.521,538.97,0.0
52535.0,STARLINK-3958,PAYLOAD,2024-06-08 03:53:33,15.08841456,0.0001423,53.2141,120.0681,96.5149,263.6005,0.0001134,1.517e-05,0.0,0 STARLINK-3958,1 52535U 22051C   24160.16219185  .00001517  00000-0  11340-3 0  9992,2 52535  53.2141 120.0681 0001423  96.5149 263.6005 15.08841456114965,6917.876,95.437,540.725,538.757,0.0
52535.0,STARLINK-3958,PAYLOAD,2024-06-08 07:04:19,15.08840126,0.0001484,53.2158,119.4733,101.7948,258.321,0.00013746,1.9e-05,0.0,0 STARLINK-3958,1 52535U 22051C   24160.29467219  .00001900  00000-0  13746-3 0  9997,2 52535  53.2158 119.4733 0001484 101.7948 258.3210 15.08840126114913,6917.88,95.438,540.772,538.718,0.0
52535.0,STARLINK-3958,PAYLOAD,2024-06-08 21:22:48,15.08838494,0.0001455,53.2147,116.7973,96.9773,263.1385,3.1945e-05,2.2e-06,0.0,0 STARLINK-3958,1 52535U 22051C   24160.89083660  .00000220  00000-0  31945-4 0  9993,2 52535  53.2147 116.7973 0001455  96.9773 263.1385 15.08838494115076,6917.885,95.438,540.757,538.743,0.0
52535.0,STARLINK-3958,PAYLOAD,2024-06-09 06:55:06,15.08843468,0.0001441,53.2162,115.0136,96.542,263.5736,5.8649e-05,6.46e-06,0.0,0 STARLINK-3958,1 52535U 22051C   24161.28827318  .00000646  00000-0  58649-4 0  9995,2 52535  53.2162 115.0136 0001441  96.5420 263.5736 15.08843468115066,6917.87,95.437,540.732,538.738,0.0
52535.0,STARLINK-3958,PAYLOAD,2024-06-10 03:35:07,15.08840241,0.0001401,53.2171,111.1474,92.9535,267.1617,6.1527e-05,6.91e-06,0.0,0 STARLINK-3958,1 52535U 22051C   24162.14939752  .00000691  00000-0  61527-4 0  9996,2 52535  53.2171 111.1474 0001401  92.9535 267.1617 15.08840241115267,6917.88,95.438,540.714,538.775,0.0
52535.0,STARLINK-3958,PAYLOAD,2024-06-10 13:07:26,15.08842283,0.0001214,53.2167,109.3643,89.1109,271.0022,2.472e-05,1.06e-06,0.0,0 STARLINK-3958,1 52535U 22051C   24162.54683726  .00000106  00000-0  24720-4 0  9992,2 52535  53.2167 109.3643 0001214  89.1109 271.0022 15.08842283115257,6917.873,95.437,540.578,538.899,0.0
52535.0,STARLINK-3958,PAYLOAD,2024-06-11 12:58:13,15.08844551,0.0001403,53.2186,104.9041,83.3141,276.8011,0.00011854,1.599e-05,0.0,0 STARLINK-3958,1 52535U 22051C   24163.54043728  .00001599  00000-0  11854-3 0  9995,2 52535  53.2186 104.9041 0001403  83.3141 276.8011 15.08844551115401,6917.866,95.437,540.702,538.761,0.0
52535.0,STARLINK-3958,PAYLOAD,2024-06-12 04:52:05,15.08845974,0.0001322,53.2188,101.9317,83.9906,276.1237,9.8093e-05,1.274e-05,0.0,0 STARLINK-3958,1 52535U 22051C   24164.20283815  .00001274  00000-0  98093-4 0  9993,2 52535  53.2188 101.9317 0001322  83.9906 276.1237 15.08845974115572,6917.862,95.437,540.642,538.813,0.0
52535.0,STARLINK-3958,PAYLOAD,2024-06-12 12:49:01,15.08834868,0.0001399,53.218,100.4483,94.3545,265.7607,5.1567e-05,5.33e-06,0.0,0 STARLINK-3958,1 52535U 22051C   24164.53404658  .00000533  00000-0  51567-4 0  9991,2 52535  53.2180 100.4483 0001399  94.3545 265.7607 15.08834868115622,6917.896,95.438,540.729,538.793,0.0
52535.0,STARLINK-3958,PAYLOAD,2024-06-13 12:39:48,15.08837324,0.0001531,53.2192,95.9841,79.7989,280.3176,-1.1631e-05,-4.73e-06,0.0,0 STARLINK-3958,1 52535U 22051C   24165.52764894 -.00000473  00000-0 -11631-4 0  9995,2 52535  53.2192  95.9841 0001531  79.7989 280.3176 15.08837324115701,6917.889,95.438,540.813,538.694,0.0
52535.0,STARLINK-3958,PAYLOAD,2024-06-14 12:30:35,15.08849279,0.0001048,53.217,91.5259,94.4666,265.6446,3.5262e-05,2.74e-06,0.0,0 STARLINK-3958,1 52535U 22051C   24166.52123854  .00000274  00000-0  35262-4 0  9994,2 52535  53.2170  91.5259 0001048  94.4666 265.6446 15.08849279115855,6917.852,95.437,540.442,538.992,0.0
52535.0,STARLINK-3958,PAYLOAD,2024-06-14 18:52:07,15.0884033,0.0001172,53.217,90.3379,82.9855,277.127,0.00015407,2.165e-05,0.0,0 STARLINK-3958,1 52535U 22051C   24166.78620234  .00002165  00000-0  15407-3 0  9995,2 52535  53.2170  90.3379 0001172  82.9855 277.1270 15.08840330115891,6917.879,95.438,540.555,538.934,0.0
52535.0,STARLINK-3958,PAYLOAD,2024-06-15 12:21:21,15.08848296,9.85e-05,53.2169,87.0648,94.039,266.0714,7.7101e-05,9.4e-06,0.0,0 STARLINK-3958,1 52535U 22051C   24167.51483760  .00000940  00000-0  77101-4 0  9997,2 52535  53.2169  87.0648 0000985  94.0390 266.0714 15.08848296116003,6917.855,95.437,540.401,539.039,0.0
52535.0,STARLINK-3958,PAYLOAD,2024-06-15 21:53:41,15.08841189,0.0001499,53.2173,85.2807,88.8264,271.29,9.7095e-05,1.258e-05,0.0,0 STARLINK-3958,1 52535U 22051C   24167.91228402  .00001258  00000-0  97095-4 0  9998,2 52535  53.2173  85.2807 0001499  88.8264 271.2900 15.08841189116062,6917.877,95.437,540.779,538.705,0.0
52535.0,STARLINK-3958,PAYLOAD,2024-06-16 04:15:13,15.08846234,0.0001568,53.2182,84.0896,97.9595,262.1576,0.00011436,1.533e-05,0.0,0 STARLINK-3958,1 52535U 22051C   24168.17724066  .00001533  00000-0  11436-3 0  9994,2 52535  53.2182  84.0896 0001568  97.9595 262.1576 15.08846234116101,6917.861,95.437,540.811,538.642,0.0
52535.0,STARLINK-3958,PAYLOAD,2024-06-16 21:44:28,15.08837047,0.0001407,53.2179,80.82,92.8017,267.3136,1.6247e-05,-2.9e-07,0.0,0 STARLINK-3958,1 52535U 22051C   24168.90588888 -.00000029  00000-0  16247-4 0  9991,2 52535  53.2179  80.8200 0001407  92.8017 267.3136 15.08837047116218,6917.889,95.438,540.728,538.781,0.0
52535.0,STARLINK-3958,PAYLOAD,2024-06-17 21:35:16,15.08833398,0.000142,53.2179,76.3594,96.0603,264.0551,5.0609e-05,5.17e-06,0.0,0 STARLINK-3958,1 52535U 22051C   24169.89949231  .00000517  00000-0  50609-4 0  9994,2 52535  53.2179  76.3594 0001420  96.0603 264.0551 15.08833398116362,6917.901,95.438,540.748,538.783,0.0
52535.0,STARLINK-3958,PAYLOAD,2024-06-18 03:56:48,15.08841522,0.0001356,53.2174,75.1707,95.1206,264.9941,9.6065e-05,1.241e-05,0.0,0 STARLINK-3958,1 52535U 22051C   24170.16444663  .00001241  00000-0  96065-4 0  9996,2 52535  53.2174  75.1707 0001356  95.1206 264.9941 15.08841522116479,6917.876,95.437,540.679,538.803,0.0
52535.0,STARLINK-3958,PAYLOAD,2024-06-18 10:18:20,15.08844001,0.0001318,53.2174,73.9814,92.7645,267.3498,7.1625e-05,8.52e-06,0.0,0 STARLINK-3958,1 52535U 22051C   24170.42940559  .00000852  00000-0  71625-4 0  9992,2 52535  53.2174  73.9814 0001318  92.7645 267.3498 15.08844001116448,6917.868,95.437,540.645,538.821,0.0
